OBJECT_NAME,OBJECT_ID,EPOCH,MEAN_MOTION,ECCENTRICITY,INCLINATION,RA_OF_ASC_NODE,ARG_OF_PERICENTER,MEAN_ANOMALY,EPHEMERIS_TYPE,CLASSIFICATION_TYPE,NORAD_CAT_ID,ELEMENT_SET_NO,REV_AT_EPOCH,BSTAR,MEAN_MOTION_DOT,MEAN_MOTION_DDOT
SAUDISAT 1C (SO-50),2002-058C,2026-06-05T08:30:32.361408,14.83020070,.0075495,64.5503,165.5947,264.6340,94.6150,0,U,27607,999,26270,.13927E-3,.1035E-4,0
SAUDISAT 2,2004-025F,2026-06-05T06:47:38.556096,14.56676563,.0024187,98.5506,155.9575,336.1043,23.9030,0,U,28371,999,16401,.78524E-4,.302E-5,0
SAUDISAT 3,2007-012B,2026-06-05T10:13:50.958336,14.71418542,.0013251,98.1451,106.8196,264.7052,95.2643,0,U,31118,999,2601,.60586E-4,.324E-5,0
PISAT,2016-059B,2026-06-05T07:00:13.032000,14.68961871,.0027624,97.8178,157.2560,242.2192,117.6213,0,U,41784,999,51799,.17358E-3,.975E-5,0
FLYING LAPTOP,2017-042G,2026-06-05T17:16:57.847872,15.01066979,.0018889,97.4644,312.6984,159.2943,200.9051,0,U,42831,999,48473,.23599E-3,.2971E-4,0
SALSAT,2020-068K,2026-06-04T23:29:13.611264,15.29615280,.0009245,97.8851,158.3021,356.4519,3.6652,0,U,46495,999,31349,.3129959E-3,.8911E-4,0
